#aV2008  7 28  0  0   .00000000      96 DD+AD WGS84 FIT  NGA
## 1490  86400.00000000   900.00000000 54675  .0000000000000
+   31     2  3  4  5  6  7  8  9 10 11 12 13 14 15 16 17 18
+         19 20 21 22 23 24 25 26 27 28 29 30 31 32  0  0  0
+          0  0  0  0  0  0  0  0  0  0  0  0  0  0  0  0  0
+          0  0  0  0  0  0  0  0  0  0  0  0  0  0  0  0  0
+          0  0  0  0  0  0  0  0  0  0  0  0  0  0  0  0  0
++         0  0  0  0  0  0  0  0  0  0  0  0  0  0  0  0  0
++         0  0  0  0  0  0  0  0  0  0  0  0  0  0  0  0  0
++         0  0  0  0  0  0  0  0  0  0  0  0  0  0  0  0  0
++         0  0  0  0  0  0  0  0  0  0  0  0  0  0  0  0  0
++         0  0  0  0  0  0  0  0  0  0  0  0  0  0  0  0  0
%c cc cc ccc ccc cccc cccc cccc cccc ccccc ccccc ccccc ccccc
%c cc cc ccc ccc cccc cccc cccc cccc ccccc ccccc ccccc ccccc
%f  0.0000000  0.000000000  0.00000000000  0.000000000000000
%f  0.0000000  0.000000000  0.00000000000  0.000000000000000
%i    0    0    0    0      0      0      0      0         0
%i    0    0    0    0      0      0      0      0         0
/*      NGA, ST. LOUIS,MO.                                  
/*   EPHEMERIS COMPUTED FROM  3 DAYS OF DATA                
/* CCCCCCCCCCCCCCCCCCCCCCCCCCCCCCCCCCCCCCCCCCCCCCCCCCCCCCCCC
/* CCCCCCCCCCCCCCCCCCCCCCCCCCCCCCCCCCCCCCCCCCCCCCCCCCCCCCCCC
*  2008  7 28 10  0   .00000000                                                 
P  2  21534.720939 -10004.836394 -11662.289931    198.938852                    
V  2  -8075.881689  12734.665554 -26523.285223      -.026597                    
P  3 -14760.628216   5737.508582  21055.851616    261.806599                    
V  3 -10190.366686 -25545.584774    174.599335       .050833                    
P  4  19017.038485    383.476165 -18778.877704   -127.133292                    
V  4 -15720.477166  17631.930460 -15279.557519      -.101362                    
P  5   2590.844525 -15509.120601 -21690.254664   -349.770564                    
V  5  26560.820483   4494.402040     97.213391      -.258142                    
P  6 -16279.064765    547.621969  21172.691594    164.379096                    
V  6  -7489.953365 -25474.057431  -5160.625182       .024945                    
P  7   -543.841613  18906.666291  18581.878380      1.750144                    
V  7 -17729.751053  15770.181648 -16618.639912       .048297                    
P  8  10877.284651   9912.095351  22041.724831   -163.590115                    
V  8 -20905.541628  18783.746463   1395.957931      -.015217                    
P  9  13196.747145 -21901.604247  -7538.959004      7.357312                    
V  9   7628.549379  -4856.837855  30167.851662       .017726                    
P 10  23444.742377  -2219.382859  12459.010818     -3.307023                    
V 10  14707.968524   6416.839294 -25925.797534      -.003783                    
P 11  -8924.864693  23841.403321  -7113.464183     22.617942                    
V 11  -9118.501404   4790.252581  28459.262868      -.005928                    
P 12   8240.744767 -13182.883638 -21439.207627   -356.044837                    
V 12  26365.711124   7551.273359   5567.357506       .009061                    
P 13   5806.527069  25921.837326     97.329928    265.526558                    
V 13  -1604.095544    631.854716 -32498.006369       .014090                    
P 14 -14337.960280 -16097.654665 -15488.022724   -238.947833                    
V 14  -3319.460647 -19515.686056  23096.396834       .044544                    
P 15   9391.579980 -15952.780804  19064.295704   -150.268521                    
V 15   7999.534031  22856.424395  15212.414687      -.064263                    
P 16 -25452.122741  -1571.996026   7867.366684    114.936998                    
V 16  -8842.215103  -4886.404971 -29624.663920      -.018032                    
P 17  15243.046344  15215.545404 -15607.730661     38.774798                    
V 17   3134.546731  19678.738549  22019.739722       .000967                    
P 18 -12710.370200 -16506.545659  16875.685460   -151.383595                    
V 18  20578.598156   4352.558056  19615.851800       .042505                    
P 19 -10028.304559  16239.192683  18470.823603     34.079736                    
V 19  -6169.326461 -22596.036706  16786.389210       .004534                    
P 20  -6164.542769  14455.190479 -21526.923883    108.944508                    
V 20 -26269.618444  -6729.975389   3051.480153      -.008402                    
P 21  -5435.358419 -15895.453652  20652.081060     56.492346                    
V 21  19607.225969 -17119.098066  -8714.098565      -.013474                    
P 22 -22954.962561 -11898.259702   6380.298572    211.480687                    
V 22   8465.432669   -637.509818  29951.056206       .001303                    
P 23  -1287.050059  24050.629736 -10963.786706    366.430265                    
V 23  -5863.287143 -12814.974204 -27839.795490       .017363                    
P 24   9416.690714 -21288.219099  13203.397711    112.789958                    
V 24  13628.937156  -9409.915370 -24936.605692       .027692                    
P 25  -5716.390082  22197.714496  13925.676871   -204.320479                    
V 25 -12201.655783  11992.361655 -24586.953842      -.118496                    
P 26  11484.922099 -10744.490434  20797.348276    300.250798                    
V 26   6878.989300  26751.510552  10304.500882       .065519                    
P 27   3140.426677  17536.119515  20336.552118    205.955634                    
V 27 -16795.388960  17667.414640 -13207.276269       .027753                    
P 28  22350.470583  12439.075226   8155.273027    -21.430796                    
V 28  -9949.715112   -657.364197  29365.365453      -.003366                    
P 29  -4403.209383 -26032.279176  -2930.195207    -40.906221                    
V 29   3671.279913   3061.365400 -31418.602072       .005232                    
P 30  -7125.560895 -16303.171987 -20099.511029     88.202243                    
V 30  24425.900141   4248.926449 -12224.197770       .019592                    
P 31 -19417.284273   2249.036476 -17833.972761    -24.974346                    
V 31  15074.133973 -17415.617631 -18294.517731      -.000997                    
P 32 -14211.576487   9442.868219 -19875.919050    310.127085                    
V 32 -24310.718695  -9915.044720  12576.021930       .024102                    
EOF
